{"type": "FeatureCollection", "features": [ {"type": "Feature", "properties": {"norad_id": 32384, "name": "GPS BIIRM-5 (PRN 29)", "group": "gps-ops", "lat": 39.59128377386575, "lon": -43.813070641338754, "alt_km": 20208.846627258878, "timestamp": "2025-12-26T14:28:47.960619+00:00", "meta": {"OBJECT_NAME": "GPS BIIRM-5 (PRN 29)", "OBJECT_ID": "2007-062A", "EPOCH": "2025-12-26T06:34:08.123232", "MEAN_MOTION": 2.00549336, "ECCENTRICITY": 0.00314087, "INCLINATION": 55.1705, "RA_OF_ASC_NODE": 281.103, "ARG_OF_PERICENTER": 162.2528, "MEAN_ANOMALY": 11.0381, "EPHEMERIS_TYPE": 0, "CLASSIFICATION_TYPE": "U", "NORAD_CAT_ID": 32384, "ELEMENT_SET_NO": 999, "REV_AT_EPOCH": 13204, "BSTAR": 0, "MEAN_MOTION_DOT": -2.8e-07, "MEAN_MOTION_DDOT": 0}, "tle": {"line1": "1 32384U 07062A   25360.27370513 -.00000028  00000+0  00000+0 0  9998", "line2": "2 32384  55.1705 281.1030 0031408 162.2528  11.0381  2.00549336132048"}}, "geometry": {"type": "Point", "coordinates": [-43.813070641338754, 39.59128377386575]}}, {"type": "Feature", "properties": {"norad_id": 32711, "name": "GPS BIIRM-6 (PRN 07)", "group": "gps-ops", "lat": -17.570719754600262, "lon": 143.7383561059203, "alt_km": 20202.73073754549, "timestamp": "2025-12-26T14:28:47.960645+00:00", "meta": {"OBJECT_NAME": "GPS BIIRM-6 (PRN 07)", "OBJECT_ID": "2008-012A", "EPOCH": "2025-12-25T15:16:44.562432", "MEAN_MOTION": 2.00566129, "ECCENTRICITY": 0.0203018, "INCLINATION": 54.4785, "RA_OF_ASC_NODE": 156.8581, "ARG_OF_PERICENTER": 245.1029, "MEAN_ANOMALY": 112.7632, "EPHEMERIS_TYPE": 0, "CLASSIFICATION_TYPE": "U", "NORAD_CAT_ID": 32711, "ELEMENT_SET_NO": 999, "REV_AT_EPOCH": 13027, "BSTAR": 0, "MEAN_MOTION_DOT": 1.01e-06, "MEAN_MOTION_DDOT": 0}, "tle": {"line1": "1 32711U 08012A   25359.63662688  .00000101  00000+0  00000+0 0  9994", "line2": "2 32711  54.4785 156.8581 0203018 245.1029 112.7632  2.00566129130276"}}, "geometry": {"type": "Point", "coordinates": [143.7383561059203, -17.570719754600262]}}, {"type": "Feature", "properties": {"norad_id": 35752, "name": "GPS BIIRM-8 (PRN 05)", "group": "gps-ops", "lat": -4.07417134648611, "lon": 31.505955518958636, "alt_km": 20173.98963995739, "timestamp": "2025-12-26T14:28:47.960659+00:00", "meta": {"OBJECT_NAME": "GPS BIIRM-8 (PRN 05)", "OBJECT_ID": "2009-043A", "EPOCH": "2025-12-26T02:26:22.079616", "MEAN_MOTION": 2.00564782, "ECCENTRICITY": 0.00515557, "INCLINATION": 56.1002, "RA_OF_ASC_NODE": 34.2563, "ARG_OF_PERICENTER": 81.6915, "MEAN_ANOMALY": 271.8027, "EPHEMERIS_TYPE": 0, "CLASSIFICATION_TYPE": "U", "NORAD_CAT_ID": 35752, "ELEMENT_SET_NO": 999, "REV_AT_EPOCH": 11988, "BSTAR": 0, "MEAN_MOTION_DOT": -5.1e-07, "MEAN_MOTION_DDOT": 0}, "tle": {"line1": "1 35752U 09043A   25360.10164444 -.00000051  00000+0  00000+0 0  9993", "line2": "2 35752  56.1002  34.2563 0051555  81.6915 271.8027  2.00564782119880"}}, "geometry": {"type": "Point", "coordinates": [31.505955518958636, -4.07417134648611]}}, {"type": "Feature", "properties": {"norad_id": 36585, "name": "GPS BIIF-1  (PRN 25)", "group": "gps-ops", "lat": 47.519317682039, "lon": -16.215310904780246, "alt_km": 19956.25435742575, "timestamp": "2025-12-26T14:28:47.960671+00:00", "meta": {"OBJECT_NAME": "GPS BIIF-1  (PRN 25)", "OBJECT_ID": "2010-022A", "EPOCH": "2025-12-26T01:43:04.882656", "MEAN_MOTION": 2.00553834, "ECCENTRICITY": 0.01266071, "INCLINATION": 54.2982, "RA_OF_ASC_NODE": 215.5361, "ARG_OF_PERICENTER": 65.2423, "MEAN_ANOMALY": 24.4831, "EPHEMERIS_TYPE": 0, "CLASSIFICATION_TYPE": "U", "NORAD_CAT_ID": 36585, "ELEMENT_SET_NO": 999, "REV_AT_EPOCH": 11412, "BSTAR": 0, "MEAN_MOTION_DOT": 8.1e-07, "MEAN_MOTION_DDOT": 0}, "tle": {"line1": "1 36585U 10022A   25360.07158429  .00000081  00000+0  00000+0 0  9991", "line2": "2 36585  54.2982 215.5361 0126607  65.2423  24.4831  2.00553834114127"}}, "geometry": {"type": "Point", "coordinates": [-16.215310904780246, 47.519317682039]}}, {"type": "Feature", "properties": {"norad_id": 38833, "name": "GPS BIIF-3  (PRN 24)", "group": "gps-ops", "lat": -25.86384292705819, "lon": -8.355191677690357, "alt_km": 20582.07133698791, "timestamp": "2025-12-26T14:28:47.960683+00:00", "meta": {"OBJECT_NAME": "GPS BIIF-3  (PRN 24)", "OBJECT_ID": "2012-053A", "EPOCH": "2025-12-24T07:38:21.199488", "MEAN_MOTION": 2.00565058, "ECCENTRICITY": 0.01760755, "INCLINATION": 53.5598, "RA_OF_ASC_NODE": 150.7645, "ARG_OF_PERICENTER": 64.1634, "MEAN_ANOMALY": 297.6191, "EPHEMERIS_TYPE": 0, "CLASSIFICATION_TYPE": "U", "NORAD_CAT_ID": 38833, "ELEMENT_SET_NO": 999, "REV_AT_EPOCH": 9593, "BSTAR": 0, "MEAN_MOTION_DOT": 8.3e-07, "MEAN_MOTION_DDOT": 0}, "tle": {"line1": "1 38833U 12053A   25358.31830092  .00000083  00000+0  00000+0 0  9994", "line2": "2 38833  53.5598 150.7645 0176075  64.1634 297.6191  2.00565058 95932"}}, "geometry": {"type": "Point", "coordinates": [-8.355191677690357, -25.86384292705819]}}, {"type": "Feature", "properties": {"norad_id": 39166, "name": "GPS BIIF-4  (PRN 27)", "group": "gps-ops", "lat": -40.23830604356416, "lon": -120.875657957556, "alt_km": 20252.839263558784, "timestamp": "2025-12-26T14:28:47.960694+00:00", "meta": {"OBJECT_NAME": "GPS BIIF-4  (PRN 27)", "OBJECT_ID": "2013-023A", "EPOCH": "2025-12-24T04:22:45.402816", "MEAN_MOTION": 2.00564584, "ECCENTRICITY": 0.01386043, "INCLINATION": 54.6422, "RA_OF_ASC_NODE": 276.1031, "ARG_OF_PERICENTER": 48.7593, "MEAN_ANOMALY": 312.474, "EPHEMERIS_TYPE": 0, "CLASSIFICATION_TYPE": "U", "NORAD_CAT_ID": 39166, "ELEMENT_SET_NO": 999, "REV_AT_EPOCH": 9237, "BSTAR": 0, "MEAN_MOTION_DOT": -1.6e-07, "MEAN_MOTION_DDOT": 0}, "tle": {"line1": "1 39166U 13023A   25358.18246994 -.00000016  00000+0  00000+0 0  9996", "line2": "2 39166  54.6422 276.1031 0138604  48.7593 312.4740  2.00564584 92374"}}, "geometry": {"type": "Point", "coordinates": [-120.875657957556, -40.23830604356416]}}, {"type": "Feature", "properties": {"norad_id": 39533, "name": "GPS BIIF-5  (PRN 30)", "group": "gps-ops", "lat": -36.52216759687332, "lon": 123.24437382695494, "alt_km": 20172.769866870553, "timestamp": "2025-12-26T14:28:47.960705+00:00", "meta": {"OBJECT_NAME": "GPS BIIF-5  (PRN 30)", "OBJECT_ID": "2014-008A", "EPOCH": "2025-12-23T16:16:25.020768", "MEAN_MOTION": 2.00548852, "ECCENTRICITY": 0.00795532, "INCLINATION": 53.5993, "RA_OF_ASC_NODE": 156.4877, "ARG_OF_PERICENTER": 225.9161, "MEAN_ANOMALY": 133.4108, "EPHEMERIS_TYPE": 0, "CLASSIFICATION_TYPE": "U", "NORAD_CAT_ID": 39533, "ELEMENT_SET_NO": 999, "REV_AT_EPOCH": 8616, "BSTAR": 0, "MEAN_MOTION_DOT": 8.2e-07, "MEAN_MOTION_DDOT": 0}, "tle": {"line1": "1 39533U 14008A   25357.67806737  .00000082  00000+0  00000+0 0  9990", "line2": "2 39533  53.5993 156.4877 0079553 225.9161 133.4108  2.00548852 86167"}}, "geometry": {"type": "Point", "coordinates": [123.24437382695494, -36.52216759687332]}}, {"type": "Feature", "properties": {"norad_id": 39741, "name": "GPS BIIF-6  (PRN 06)", "group": "gps-ops", "lat": 52.737724583458906, "lon": 98.02922901032284, "alt_km": 20265.46045775925, "timestamp": "2025-12-26T14:28:47.960717+00:00", "meta": {"OBJECT_NAME": "GPS BIIF-6  (PRN 06)", "OBJECT_ID": "2014-026A", "EPOCH": "2025-12-25T22:56:21.833664", "MEAN_MOTION": 2.00560326, "ECCENTRICITY": 0.00395057, "INCLINATION": 56.5784, "RA_OF_ASC_NODE": 338.2626, "ARG_OF_PERICENTER": 319.4307, "MEAN_ANOMALY": 40.2828, "EPHEMERIS_TYPE": 0, "CLASSIFICATION_TYPE": "U", "NORAD_CAT_ID": 39741, "ELEMENT_SET_NO": 999, "REV_AT_EPOCH": 8506, "BSTAR": 0, "MEAN_MOTION_DOT": -5.7e-07, "MEAN_MOTION_DDOT": 0}, "tle": {"line1": "1 39741U 14026A   25359.95580826 -.00000057  00000+0  00000+0 0  9995", "line2": "2 39741  56.5784 338.2626 0039505 319.4307  40.2828  2.00560326 85067"}}, "geometry": {"type": "Point", "coordinates": [98.02922901032284, 52.737724583458906]}}, {"type": "Feature", "properties": {"norad_id": 40105, "name": "GPS BIIF-7  (PRN 09)", "group": "gps-ops", "lat": 35.500414518236276, "lon": 125.00273879761156, "alt_km": 20154.879661716317, "timestamp": "2025-12-26T14:28:47.960728+00:00", "meta": {"OBJECT_NAME": "GPS BIIF-7  (PRN 09)", "OBJECT_ID": "2014-045A", "EPOCH": "2025-12-23T13:11:32.096256", "MEAN_MOTION": 2.00573211, "ECCENTRICITY": 0.00324114, "INCLINATION": 55.2352, "RA_OF_ASC_NODE": 95.4677, "ARG_OF_PERICENTER": 120.1575, "MEAN_ANOMALY": 240.1743, "EPHEMERIS_TYPE": 0, "CLASSIFICATION_TYPE": "U", "NORAD_CAT_ID": 40105, "ELEMENT_SET_NO": 999, "REV_AT_EPOCH": 8255, "BSTAR": 0, "MEAN_MOTION_DOT": 8e-08, "MEAN_MOTION_DDOT": 0}, "tle": {"line1": "1 40105U 14045A   25357.54967704  .00000008  00000+0  00000+0 0  9994", "line2": "2 40105  55.2352  95.4677 0032411 120.1575 240.1743  2.00573211 82556"}}, "geometry": {"type": "Point", "coordinates": [125.00273879761156, 35.500414518236276]}}, {"type": "Feature", "properties": {"norad_id": 40294, "name": "GPS BIIF-8  (PRN 03)", "group": "gps-ops", "lat": 36.99540204536248, "lon": -171.8375004654691, "alt_km": 20108.38697578195, "timestamp": "2025-12-26T14:28:47.960739+00:00", "meta": {"OBJECT_NAME": "GPS BIIF-8  (PRN 03)", "OBJECT_ID": "2014-068A", "EPOCH": "2025-12-23T10:16:22.808064", "MEAN_MOTION": 2.00565491, "ECCENTRICITY": 0.00608386, "INCLINATION": 56.8656, "RA_OF_ASC_NODE": 37.7327, "ARG_OF_PERICENTER": 68.9718, "MEAN_ANOMALY": 291.747, "EPHEMERIS_TYPE": 0, "CLASSIFICATION_TYPE": "U", "NORAD_CAT_ID": 40294, "ELEMENT_SET_NO": 999, "REV_AT_EPOCH": 8168, "BSTAR": 0, "MEAN_MOTION_DOT": -4.8e-07, "MEAN_MOTION_DDOT": 0}, "tle": {"line1": "1 40294U 14068A   25357.42804176 -.00000048  00000+0  00000+0 0  9993", "line2": "2 40294  56.8656  37.7327 0060838  68.9718 291.7470  2.00565491 81685"}}, "geometry": {"type": "Point", "coordinates": [-171.8375004654691, 36.99540204536248]}}]}